start=new Date('2021-10-19T00:00:00.000Z').valueOf();
sats=[{"FILE":"3170620","SITE":"AFETR","MEAN_MOTION_DOT":"0.00001119","MEAN_MOTION_DDOT":"0.0000000000000","GP_ID":"187536652","ECCENTRICITY":"0.00012960","OBJECT_TYPE":"PAYLOAD","OBJECT_NAME":"STARLINK-2085","REF_FRAME":"TEME","EPHEMERIS_TYPE":"0","MEAN_MOTION":"15.06400796","PERIOD":"95.592","SEMIMAJOR_AXIS":"6925.346","COUNTRY_CODE":"US","BSTAR":"0.00009401600000","EPOCH":"2021-10-18T16:18:16.317792","CENTER_NAME":"EARTH","LAUNCH_DATE":"2021-01-20","RA_OF_ASC_NODE":"37.8178","PERIAPSIS":"546.314","MEAN_ELEMENT_THEORY":"SGP4","REV_AT_EPOCH":"4171","OBJECT_ID":"2021-005W","INCLINATION":"53.0564","DECAY_DATE":null,"RCS_SIZE":"LARGE","APOAPSIS":"548.109","TLE_LINE2":"2 47369  53.0564  37.8178 0001296  94.5505 265.5633 15.06400796 41715","TLE_LINE1":"1 47369U 21005W   21291.67935553  .00001119  00000-0  94016-4 0  9991","CLASSIFICATION_TYPE":"U","NORAD_CAT_ID":"47369","ELEMENT_SET_NO":"999","TIME_SYSTEM":"UTC","ARG_OF_PERICENTER":"94.5505","MEAN_ANOMALY":"265.5633"},{"FILE":"3170620","SITE":"AFETR","MEAN_MOTION_DDOT":"0.0000000000000","MEAN_MOTION_DOT":"0.00000564","ECCENTRICITY":"0.00011390","GP_ID":"187536902","OBJECT_TYPE":"PAYLOAD","OBJECT_NAME":"STARLINK-2086","REF_FRAME":"TEME","EPHEMERIS_TYPE":"0","MEAN_MOTION":"15.06400930","PERIOD":"95.592","SEMIMAJOR_AXIS":"6925.346","COUNTRY_CODE":"US","EPOCH":"2021-10-18T13:41:41.155008","BSTAR":"0.00005676200000","CENTER_NAME":"EARTH","LAUNCH_DATE":"2021-01-20","PERIAPSIS":"546.422","RA_OF_ASC_NODE":"18.2714","MEAN_ELEMENT_THEORY":"SGP4","REV_AT_EPOCH":"4198","OBJECT_ID":"2021-005X","INCLINATION":"53.0642","DECAY_DATE":null,"RCS_SIZE":"LARGE","APOAPSIS":"548.000","TLE_LINE2":"2 47370  53.0642  18.2714 0001139  89.8172 270.2947 15.06400930 41986","TLE_LINE1":"1 47370U 21005X   21291.57061522  .00000564  00000-0  56762-4 0  9997","CLASSIFICATION_TYPE":"U","NORAD_CAT_ID":"47370","TIME_SYSTEM":"UTC","ELEMENT_SET_NO":"999","ARG_OF_PERICENTER":"89.8172","MEAN_ANOMALY":"270.2947"},{"OBJECT_NAME":"STARLINK-2088","OBJECT_TYPE":"PAYLOAD","MEAN_MOTION":"15.06408666","EPHEMERIS_TYPE":"0","REF_FRAME":"TEME","SITE":"AFETR","FILE":"3170620","ECCENTRICITY":"0.00014010","GP_ID":"187537154","MEAN_MOTION_DDOT":"0.0000000000000","MEAN_MOTION_DOT":"0.00001861","CENTER_NAME":"EARTH","LAUNCH_DATE":"2021-01-20","MEAN_ELEMENT_THEORY":"SGP4","RA_OF_ASC_NODE":"58.0683","PERIAPSIS":"546.217","SEMIMAJOR_AXIS":"6925.322","PERIOD":"95.592","COUNTRY_CODE":"US","BSTAR":"0.00014379000000","EPOCH":"2021-10-18T14:55:59.302560","APOAPSIS":"548.157","TLE_LINE2":"2 47371  53.0555  58.0683 0001401 100.1613 259.9534 15.06408666 41425","TLE_LINE1":"1 47371U 21005Y   21291.62221415  .00001861  00000-0  14379-3 0  9991","OBJECT_ID":"2021-005Y","REV_AT_EPOCH":"4142","RCS_SIZE":"LARGE","INCLINATION":"53.0555","DECAY_DATE":null,"ELEMENT_SET_NO":"999","TIME_SYSTEM":"UTC","ARG_OF_PERICENTER":"100.1613","MEAN_ANOMALY":"259.9534","CLASSIFICATION_TYPE":"U","NORAD_CAT_ID":"47371"},{"REV_AT_EPOCH":"4149","OBJECT_ID":"2021-005Z","RCS_SIZE":"LARGE","INCLINATION":"53.0556","DECAY_DATE":null,"APOAPSIS":"548.016","TLE_LINE2":"2 47372  53.0556  52.9165 0001136  86.6451 273.4668 15.06394883 41499","TLE_LINE1":"1 47372U 21005Z   21291.65306979  .00000542  00000-0  55252-4 0  9995","CLASSIFICATION_TYPE":"U","NORAD_CAT_ID":"47372","ELEMENT_SET_NO":"999","TIME_SYSTEM":"UTC","MEAN_ANOMALY":"273.4668","ARG_OF_PERICENTER":"86.6451","SITE":"AFETR","FILE":"3170620","GP_ID":"187537405","ECCENTRICITY":"0.00011360","MEAN_MOTION_DDOT":"0.0000000000000","MEAN_MOTION_DOT":"0.00000542","OBJECT_NAME":"STARLINK-2089","OBJECT_TYPE":"PAYLOAD","MEAN_MOTION":"15.06394883","REF_FRAME":"TEME","EPHEMERIS_TYPE":"0","SEMIMAJOR_AXIS":"6925.364","PERIOD":"95.592","COUNTRY_CODE":"US","EPOCH":"2021-10-18T15:40:25.229856","BSTAR":"0.00005525200000","CENTER_NAME":"EARTH","LAUNCH_DATE":"2021-01-20","MEAN_ELEMENT_THEORY":"SGP4","PERIAPSIS":"546.443","RA_OF_ASC_NODE":"52.9165"},{"ELEMENT_SET_NO":"999","TIME_SYSTEM":"UTC","MEAN_ANOMALY":"252.0623","ARG_OF_PERICENTER":"108.0484","CLASSIFICATION_TYPE":"U","NORAD_CAT_ID":"47373","APOAPSIS":"547.965","TLE_LINE1":"1 47373U 21005AA  21291.61853190  .00000602  00000-0  59292-4 0  9999","TLE_LINE2":"2 47373  53.0552  58.0791 0001083 108.0484 252.0623 15.06399556 41423","REV_AT_EPOCH":"4142","OBJECT_ID":"2021-005AA","RCS_SIZE":"LARGE","DECAY_DATE":null,"INCLINATION":"53.0552","LAUNCH_DATE":"2021-01-20","CENTER_NAME":"EARTH","MEAN_ELEMENT_THEORY":"SGP4","RA_OF_ASC_NODE":"58.0791","PERIAPSIS":"546.465","PERIOD":"95.592","SEMIMAJOR_AXIS":"6925.350","BSTAR":"0.00005929200000","EPOCH":"2021-10-18T14:50:41.156160","COUNTRY_CODE":"US","OBJECT_NAME":"STARLINK-2092","OBJECT_TYPE":"PAYLOAD","MEAN_MOTION":"15.06399556","REF_FRAME":"TEME","EPHEMERIS_TYPE":"0","SITE":"AFETR","FILE":"3170620","ECCENTRICITY":"0.00010830","GP_ID":"187536153","MEAN_MOTION_DDOT":"0.0000000000000","MEAN_MOTION_DOT":"0.00000602"},{"OBJECT_NAME":"STARLINK-2093","OBJECT_TYPE":"PAYLOAD","MEAN_MOTION":"15.06405193","REF_FRAME":"TEME","EPHEMERIS_TYPE":"0","SITE":"AFETR","FILE":"3170620","GP_ID":"187536403","ECCENTRICITY":"0.00010400","MEAN_MOTION_DDOT":"0.0000000000000","MEAN_MOTION_DOT":"0.00001476","LAUNCH_DATE":"2021-01-20","CENTER_NAME":"EARTH","MEAN_ELEMENT_THEORY":"SGP4","PERIAPSIS":"546.477","RA_OF_ASC_NODE":"58.0325","SEMIMAJOR_AXIS":"6925.333","PERIOD":"95.592","EPOCH":"2021-10-18T15:11:54.626496","BSTAR":"0.00011792000000","COUNTRY_CODE":"US","APOAPSIS":"547.918","TLE_LINE1":"1 47374U 21005AB  21291.63327114  .00001476  00000-0  11792-3 0  9996","TLE_LINE2":"2 47374  53.0568  58.0325 0001040  77.8977 282.2128 15.06405193 41427","REV_AT_EPOCH":"4142","OBJECT_ID":"2021-005AB","RCS_SIZE":"LARGE","DECAY_DATE":null,"INCLINATION":"53.0568","TIME_SYSTEM":"UTC","ELEMENT_SET_NO":"999","MEAN_ANOMALY":"282.2128","ARG_OF_PERICENTER":"77.8977","CLASSIFICATION_TYPE":"U","NORAD_CAT_ID":"47374"},{"MEAN_ANOMALY":"262.5920","ARG_OF_PERICENTER":"97.5243","ELEMENT_SET_NO":"999","TIME_SYSTEM":"UTC","NORAD_CAT_ID":"47375","CLASSIFICATION_TYPE":"U","TLE_LINE1":"1 47375U 21005AC  21291.64432980  .00000957  00000-0  83150-4 0  9997","TLE_LINE2":"2 47375  53.0584  57.9752 0001538  97.5243 262.5920 15.06403639 41429","APOAPSIS":"548.268","RCS_SIZE":"LARGE","DECAY_DATE":null,"INCLINATION":"53.0584","REV_AT_EPOCH":"4142","OBJECT_ID":"2021-005AC","MEAN_ELEMENT_THEORY":"SGP4","PERIAPSIS":"546.137","RA_OF_ASC_NODE":"57.9752","LAUNCH_DATE":"2021-01-20","CENTER_NAME":"EARTH","BSTAR":"0.00008315000000","EPOCH":"2021-10-18T15:27:50.094720","COUNTRY_CODE":"US","SEMIMAJOR_AXIS":"6925.337","PERIOD":"95.592","MEAN_MOTION":"15.06403639","REF_FRAME":"TEME","EPHEMERIS_TYPE":"0","OBJECT_NAME":"STARLINK-2094","OBJECT_TYPE":"PAYLOAD","GP_ID":"187537654","ECCENTRICITY":"0.00015380","MEAN_MOTION_DOT":"0.00000957","MEAN_MOTION_DDOT":"0.0000000000000","SITE":"AFETR","FILE":"3170620"},{"RA_OF_ASC_NODE":"57.9525","PERIAPSIS":"546.205","MEAN_ELEMENT_THEORY":"SGP4","LAUNCH_DATE":"2021-01-20","CENTER_NAME":"EARTH","BSTAR":"0.00013759000000","EPOCH":"2021-10-18T15:33:09.437760","COUNTRY_CODE":"US","PERIOD":"95.592","SEMIMAJOR_AXIS":"6925.337","EPHEMERIS_TYPE":"0","REF_FRAME":"TEME","MEAN_MOTION":"15.06403755","OBJECT_TYPE":"PAYLOAD","OBJECT_NAME":"STARLINK-2096","MEAN_MOTION_DOT":"0.00001769","MEAN_MOTION_DDOT":"0.0000000000000","GP_ID":"187537905","ECCENTRICITY":"0.00014400","FILE":"3170620","SITE":"AFETR","MEAN_ANOMALY":"261.8037","ARG_OF_PERICENTER":"98.3115","ELEMENT_SET_NO":"999","TIME_SYSTEM":"UTC","NORAD_CAT_ID":"47376","CLASSIFICATION_TYPE":"U","TLE_LINE1":"1 47376U 21005AD  21291.64802590  .00001769  00000-0  13759-3 0  9995","TLE_LINE2":"2 47376  53.0569  57.9525 0001440  98.3115 261.8037 15.06403755 41420","APOAPSIS":"548.199","DECAY_DATE":null,"INCLINATION":"53.0569","RCS_SIZE":"LARGE","OBJECT_ID":"2021-005AD","REV_AT_EPOCH":"4142"},{"OBJECT_ID":"2021-005AE","REV_AT_EPOCH":"4142","INCLINATION":"53.0570","DECAY_DATE":null,"RCS_SIZE":"LARGE","APOAPSIS":"548.069","TLE_LINE2":"2 47377  53.0570  57.9996 0001237  73.3192 286.7933 15.06400326 41429","TLE_LINE1":"1 47377U 21005AE  21291.63969719  .00001814  00000-0  14067-3 0  9996","CLASSIFICATION_TYPE":"U","NORAD_CAT_ID":"47377","ELEMENT_SET_NO":"999","TIME_SYSTEM":"UTC","ARG_OF_PERICENTER":"73.3192","MEAN_ANOMALY":"286.7933","FILE":"3170620","SITE":"AFETR","MEAN_MOTION_DOT":"0.00001814","MEAN_MOTION_DDOT":"0.0000000000000","ECCENTRICITY":"0.00012370","GP_ID":"187536653","OBJECT_TYPE":"PAYLOAD","OBJECT_NAME":"STARLINK-2097","EPHEMERIS_TYPE":"0","REF_FRAME":"TEME","MEAN_MOTION":"15.06400326","PERIOD":"95.592","SEMIMAJOR_AXIS":"6925.348","COUNTRY_CODE":"US","BSTAR":"0.00014067000000","EPOCH":"2021-10-18T15:21:09.837216","CENTER_NAME":"EARTH","LAUNCH_DATE":"2021-01-20","PERIAPSIS":"546.356","RA_OF_ASC_NODE":"57.9996","MEAN_ELEMENT_THEORY":"SGP4"},{"TIME_SYSTEM":"UTC","ELEMENT_SET_NO":"999","ARG_OF_PERICENTER":"93.0337","MEAN_ANOMALY":"267.0797","CLASSIFICATION_TYPE":"U","NORAD_CAT_ID":"47378","APOAPSIS":"548.044","TLE_LINE1":"1 47378U 21005AF  21291.55956492  .00004231  00000-0  30261-3 0  9992","TLE_LINE2":"2 47378  53.0578  18.3425 0001264  93.0337 267.0797 15.06414612 41979","OBJECT_ID":"2021-005AF","REV_AT_EPOCH":"4197","RCS_SIZE":"LARGE","DECAY_DATE":null,"INCLINATION":"53.0578","LAUNCH_DATE":"2021-01-20","CENTER_NAME":"EARTH","MEAN_ELEMENT_THEORY":"SGP4","RA_OF_ASC_NODE":"18.3425","PERIAPSIS":"546.293","SEMIMAJOR_AXIS":"6925.304","PERIOD":"95.591","BSTAR":"0.00030261000000","EPOCH":"2021-10-18T13:25:46.409088","COUNTRY_CODE":"US","OBJECT_NAME":"STARLINK-2098","OBJECT_TYPE":"PAYLOAD","MEAN_MOTION":"15.06414612","REF_FRAME":"TEME","EPHEMERIS_TYPE":"0","SITE":"AFETR","FILE":"3170620","GP_ID":"187536903","ECCENTRICITY":"0.00012640","MEAN_MOTION_DDOT":"0.0000000000000","MEAN_MOTION_DOT":"0.00004231"}];
